[
    {
        "Altitude(m)": 702773.808087574,
        "Argument of Periapsis(deg)": 0.006834072711976239,
        "Eccentricity": 0.0,
        "Inclination(deg)": 45.0,
        "Latitude(deg)": 16.271178843464824,
        "Longitude(deg)": -138.57568295308084,
        "Mean Anomaly(deg)": 23.28352998848852,
        "RAAN(deg)": 304.9935488351251,
        "Satellite Name": "Constellation 1 1343",
        "Satellite Number": 1343,
        "Semi-Major Axis(m)": 7083131.272910544,
        "Time(s)": 114
    },
    {
        "Altitude(m)": 702775.7175875193,
        "Argument of Periapsis(deg)": 0.006894020718221645,
        "Eccentricity": 0.0,
        "Inclination(deg)": 45.0,
        "Latitude(deg)": 16.312512169589684,
        "Longitude(deg)": -138.53328059698634,
        "Mean Anomaly(deg)": 23.344231128738407,
        "RAAN(deg)": 304.9934922459595,
        "Satellite Name": "Constellation 1 1343",
        "Satellite Number": 1343,
        "Semi-Major Axis(m)": 7083131.272910544,
        "Time(s)": 115
    },
    {
        "Altitude(m)": 702777.643630263,
        "Argument of Periapsis(deg)": 0.006953968724467052,
        "Eccentricity": 0.0,
        "Inclination(deg)": 45.0,
        "Latitude(deg)": 16.35383511774475,
        "Longitude(deg)": -138.49085870523467,
        "Mean Anomaly(deg)": 23.404932268988293,
        "RAAN(deg)": 304.99343565679396,
        "Satellite Name": "Constellation 1 1343",
        "Satellite Number": 1343,
        "Semi-Major Axis(m)": 7083131.272910544,
        "Time(s)": 116
    },
    {
        "Altitude(m)": 702779.5861896107,
        "Argument of Periapsis(deg)": 0.007013916730712457,
        "Eccentricity": 0.0,
        "Inclination(deg)": 45.0,
        "Latitude(deg)": 16.39514765586936,
        "Longitude(deg)": -138.44841722236205,
        "Mean Anomaly(deg)": 23.465633409238183,
        "RAAN(deg)": 304.9933790676284,
        "Satellite Name": "Constellation 1 1343",
        "Satellite Number": 1343,
        "Semi-Major Axis(m)": 7083131.272910544,
        "Time(s)": 117
    },
    {
        "Altitude(m)": 702781.5452393197,
        "Argument of Periapsis(deg)": 0.007073864736957864,
        "Eccentricity": 0.0,
        "Inclination(deg)": 45.0,
        "Latitude(deg)": 16.436449751864565,
        "Longitude(deg)": -138.40595609287348,
        "Mean Anomaly(deg)": 23.52633454948812,
        "RAAN(deg)": 304.9933224784628,
        "Satellite Name": "Constellation 1 1343",
        "Satellite Number": 1343,
        "Semi-Major Axis(m)": 7083131.272910544,
        "Time(s)": 118
    },
    {
        "Altitude(m)": 702783.5207530754,
        "Argument of Periapsis(deg)": 0.0071338127432032696,
        "Eccentricity": 0.0,
        "Inclination(deg)": 45.0,
        "Latitude(deg)": 16.477741373592906,
        "Longitude(deg)": -138.36347542934,
        "Mean Anomaly(deg)": 23.587035689738002,
        "RAAN(deg)": 304.9932658892973,
        "Satellite Name": "Constellation 1 1343",
        "Satellite Number": 1343,
        "Semi-Major Axis(m)": 7083131.272910544,
        "Time(s)": 119
    },
    {
        "Altitude(m)": 702785.5127044992,
        "Argument of Periapsis(deg)": 0.007193760749448674,
        "Eccentricity": 0.0,
        "Inclination(deg)": 45.0,
        "Latitude(deg)": 16.519022488877674,
        "Longitude(deg)": -138.3209748400107,
        "Mean Anomaly(deg)": 23.64773682998789,
        "RAAN(deg)": 304.99320930013164,
        "Satellite Name": "Constellation 1 1343",
        "Satellite Number": 1343,
        "Semi-Major Axis(m)": 7083131.272910544,
        "Time(s)": 120
    },
    {
        "Altitude(m)": 702787.5210671413,
        "Argument of Periapsis(deg)": 0.007253708755694079,
        "Eccentricity": 0.0,
        "Inclination(deg)": 45.0,
        "Latitude(deg)": 16.5602930655041,
        "Longitude(deg)": -138.2784544373943,
        "Mean Anomaly(deg)": 23.708437970237828,
        "RAAN(deg)": 304.9931527109661,
        "Satellite Name": "Constellation 1 1343",
        "Satellite Number": 1343,
        "Semi-Major Axis(m)": 7083131.272910544,
        "Time(s)": 121
    },
    {
        "Altitude(m)": 702789.5458144913,
        "Argument of Periapsis(deg)": 0.0073136567619394854,
        "Eccentricity": 0.0,
        "Inclination(deg)": 45.0,
        "Latitude(deg)": 16.601553071218337,
        "Longitude(deg)": -138.23591416587163,
        "Mean Anomaly(deg)": 23.769139110487714,
        "RAAN(deg)": 304.99309612180053,
        "Satellite Name": "Constellation 1 1343",
        "Satellite Number": 1343,
        "Semi-Major Axis(m)": 7083131.272910544,
        "Time(s)": 122
    },
    {
        "Altitude(m)": 702791.5869199679,
        "Argument of Periapsis(deg)": 0.0073736047681848904,
        "Eccentricity": 0.0,
        "Inclination(deg)": 45.0,
        "Latitude(deg)": 16.64280247372751,
        "Longitude(deg)": -138.19335396979247,
        "Mean Anomaly(deg)": 23.8298402507376,
        "RAAN(deg)": 304.99303953263495,
        "Satellite Name": "Constellation 1 1343",
        "Satellite Number": 1343,
        "Semi-Major Axis(m)": 7083131.272910544,
        "Time(s)": 123
    },
    {
        "Altitude(m)": 702793.6443569289,
        "Argument of Periapsis(deg)": 0.007433552774430298,
        "Eccentricity": 0.0,
        "Inclination(deg)": 45.0,
        "Latitude(deg)": 16.684041240699642,
        "Longitude(deg)": -138.15077379347545,
        "Mean Anomaly(deg)": 23.89054139098749,
        "RAAN(deg)": 304.99298294346943,
        "Satellite Name": "Constellation 1 1343",
        "Satellite Number": 1343,
        "Semi-Major Axis(m)": 7083131.272910544,
        "Time(s)": 124
    },
    {
        "Altitude(m)": 702795.7180986662,
        "Argument of Periapsis(deg)": 0.007493500780675703,
        "Eccentricity": 0.0,
        "Inclination(deg)": 45.0,
        "Latitude(deg)": 16.725269339763567,
        "Longitude(deg)": -138.10817358120818,
        "Mean Anomaly(deg)": 23.951242531237426,
        "RAAN(deg)": 304.99292635430385,
        "Satellite Name": "Constellation 1 1343",
        "Satellite Number": 1343,
        "Semi-Major Axis(m)": 7083131.272910544,
        "Time(s)": 125
    },
    {
        "Altitude(m)": 702797.808118398,
        "Argument of Periapsis(deg)": 0.007553448786921108,
        "Eccentricity": 0.0,
        "Inclination(deg)": 45.0,
        "Latitude(deg)": 16.766486738509037,
        "Longitude(deg)": -138.0655534453443,
        "Mean Anomaly(deg)": 24.01194367148731,
        "RAAN(deg)": 304.99286976513827,
        "Satellite Name": "Constellation 1 1343",
        "Satellite Number": 1343,
        "Semi-Major Axis(m)": 7083131.272910544,
        "Time(s)": 126
    },
    {
        "Altitude(m)": 702799.914389287,
        "Argument of Periapsis(deg)": 0.007613396793166514,
        "Eccentricity": 0.0,
        "Inclination(deg)": 45.0,
        "Latitude(deg)": 16.807693404485544,
        "Longitude(deg)": -138.02291299391507,
        "Mean Anomaly(deg)": 24.072644811737145,
        "RAAN(deg)": 304.9928131759727,
        "Satellite Name": "Constellation 1 1343",
        "Satellite Number": 1343,
        "Semi-Major Axis(m)": 7083131.272910544,
        "Time(s)": 127
    },
    {
        "Altitude(m)": 702802.036884431,
        "Argument of Periapsis(deg)": 0.007673344799411918,
        "Eccentricity": 0.0,
        "Inclination(deg)": 45.0,
        "Latitude(deg)": 16.848889305203972,
        "Longitude(deg)": -137.98025233921186,
        "Mean Anomaly(deg)": 24.133345951987135,
        "RAAN(deg)": 304.9927565868071,
        "Satellite Name": "Constellation 1 1343",
        "Satellite Number": 1343,
        "Semi-Major Axis(m)": 7083131.272910544,
        "Time(s)": 128
    },
    {
        "Altitude(m)": 702804.1755768573,
        "Argument of Periapsis(deg)": 0.007733292805657325,
        "Eccentricity": 0.0,
        "Inclination(deg)": 45.0,
        "Latitude(deg)": 16.890074408135003,
        "Longitude(deg)": -137.93757142539803,
        "Mean Anomaly(deg)": 24.19404709223697,
        "RAAN(deg)": 304.9926999976416,
        "Satellite Name": "Constellation 1 1343",
        "Satellite Number": 1343,
        "Semi-Major Axis(m)": 7083131.272910544,
        "Time(s)": 129
    },
    {
        "Altitude(m)": 702806.3304395218,
        "Argument of Periapsis(deg)": 0.00779324081190273,
        "Eccentricity": 0.0,
        "Inclination(deg)": 45.0,
        "Latitude(deg)": 16.93124868070981,
        "Longitude(deg)": -137.89487019660564,
        "Mean Anomaly(deg)": 24.254748232486858,
        "RAAN(deg)": 304.992643408476,
        "Satellite Name": "Constellation 1 1343",
        "Satellite Number": 1343,
        "Semi-Major Axis(m)": 7083131.272910544,
        "Time(s)": 130
    },
    {
        "Altitude(m)": 702808.5014453317,
        "Argument of Periapsis(deg)": 0.007853188818148135,
        "Eccentricity": 0.0,
        "Inclination(deg)": 45.0,
        "Latitude(deg)": 16.972412090319523,
        "Longitude(deg)": -137.8521485969361,
        "Mean Anomaly(deg)": 24.31544937273674,
        "RAAN(deg)": 304.99258681931036,
        "Satellite Name": "Constellation 1 1343",
        "Satellite Number": 1343,
        "Semi-Major Axis(m)": 7083131.272910544,
        "Time(s)": 131
    },
    {
        "Altitude(m)": 702810.6885671205,
        "Argument of Periapsis(deg)": 0.007913136824393542,
        "Eccentricity": 0.0,
        "Inclination(deg)": 45.0,
        "Latitude(deg)": 17.013564604315278,
        "Longitude(deg)": -137.80940657045923,
        "Mean Anomaly(deg)": 24.37615051298668,
        "RAAN(deg)": 304.99253023014484,
        "Satellite Name": "Constellation 1 1343",
        "Satellite Number": 1343,
        "Semi-Major Axis(m)": 7083131.272910544,
        "Time(s)": 132
    }
]